NORAD_CAT_ID,OBJECT_NAME,OBJECT_TYPE,EPOCH,MEAN_MOTION,ECCENTRICITY,INCLINATION,RA_OF_ASC_NODE,ARG_OF_PERICENTER,MEAN_ANOMALY,BSTAR,MEAN_MOTION_DOT,MEAN_MOTION_DDOT,TLE_LINE0,TLE_LINE1,TLE_LINE2,SEMIMAJOR_AXIS,PERIOD,APOGEE,PERIGEE,DECAYED
53729.0,STARLINK-4651,PAYLOAD,2024-08-14 12:26:56,15.08832757,0.0001455,53.2169,302.8124,107.8737,252.2414,-5.2099e-05,-1.117e-05,0.0,0 STARLINK-4651,1 53729U 22107AF  24227.51871509 -.00001117  00000-0 -52099-4 0  9992,2 53729  53.2169 302.8124 0001455 107.8737 252.2414 15.08832757107578,6917.903,95.438,540.774,538.761,0.0
53729.0,STARLINK-4651,PAYLOAD,2024-08-14 21:59:14,15.08851723,0.000103,53.214,301.0251,106.3225,253.788,3.0959e-06,-2.39e-06,0.0,0 STARLINK-4651,1 53729U 22107AF  24227.91614556 -.00000239  00000-0  30959-5 0  9998,2 53729  53.2140 301.0251 0001030 106.3225 253.7880 15.08851723108268,6917.845,95.437,540.422,538.997,0.0
53729.0,STARLINK-4651,PAYLOAD,2024-08-15 09:06:58,15.08835096,8.78e-05,53.2139,298.9436,103.2074,256.9016,0.00097468,0.00015256,0.0,0 STARLINK-4651,1 53729U 22107AF  24228.37984212  .00015256  00000-0  97468-3 0  9998,2 53729  53.2139 298.9436 0000878 103.2074 256.9016 15.08835096108331,6917.895,95.438,540.368,539.153,0.0
53729.0,STARLINK-4651,PAYLOAD,2024-08-15 21:50:02,15.08856861,7.87e-05,53.2138,296.5625,94.2092,265.899,0.00044024,6.729e-05,0.0,0 STARLINK-4651,1 53729U 22107AF  24228.90974883  .00006729  00000-0  44024-3 0  9995,2 53729  53.2138 296.5625 0000787  94.2092 265.8990 15.08856861108414,6917.829,95.436,540.238,539.149,0.0
53729.0,STARLINK-4651,PAYLOAD,2024-08-16 10:33:07,15.08847992,0.0001512,53.2159,294.1834,88.4825,271.634,3.2789e-06,-2.36e-06,0.0,0 STARLINK-4651,1 53729U 22107AF  24229.43967174 -.00000236  00000-0  32789-5 0  9994,2 53729  53.2159 294.1834 0001512  88.4825 271.6340 15.08847992107866,6917.856,95.437,540.767,538.675,0.0
53729.0,STARLINK-4651,PAYLOAD,2024-08-17 04:02:21,15.08857923,0.0002003,53.2169,290.9138,89.8612,270.2609,-0.00021141,-3.653e-05,0.0,0 STARLINK-4651,1 53729U 22107AF  24230.16830268 -.00003653  00000-0 -21141-3 0  9994,2 53729  53.2169 290.9138 0002003  89.8612 270.2609 15.08857923107973,6917.826,95.436,541.076,538.305,0.0
53729.0,STARLINK-4651,PAYLOAD,2024-08-18 13:25:27,15.0884009,0.0001465,53.2155,284.6707,101.2691,258.8466,1.4748e-05,-5.3e-07,0.0,0 STARLINK-4651,1 53729U 22107AF  24231.55934698 -.00000053  00000-0  14748-4 0  9996,2 53729  53.2155 284.6707 0001465 101.2691 258.8466 15.08840090108181,6917.88,95.438,540.759,538.732,0.0
53729.0,STARLINK-4651,PAYLOAD,2024-08-19 03:43:56,15.08830099,0.0001582,53.2152,281.9938,98.4594,261.6577,-6.8736e-05,-1.381e-05,0.0,0 STARLINK-4651,1 53729U 22107AF  24232.15551714 -.00001381  00000-0 -68736-4 0  9999,2 53729  53.2152 281.9938 0001582  98.4594 261.6577 15.08830099108276,6917.911,95.438,540.87,538.681,0.0
53729.0,STARLINK-4651,PAYLOAD,2024-08-19 11:40:52,15.08828285,0.0001382,53.2154,280.5061,90.8998,269.2153,-0.0001106,-2.047e-05,0.0,0 STARLINK-4651,1 53729U 22107AF  24232.48672121 -.00002047  00000-0 -11060-3 0  9998,2 53729  53.2154 280.5061 0001382  90.8998 269.2153 15.08828285108955,6917.916,95.438,540.737,538.825,0.0
53729.0,STARLINK-4651,PAYLOAD,2024-08-20 09:56:16,15.08834264,0.0001316,53.2163,276.3439,88.0446,272.0697,8.1964e-05,1.017e-05,0.0,0 STARLINK-4651,1 53729U 22107AF  24233.41407613  .00001017  00000-0  81964-4 0  9999,2 53729  53.2163 276.3439 0001316  88.0446 272.0697 15.08834264108466,6917.898,95.438,540.673,538.853,0.0
53729.0,STARLINK-4651,PAYLOAD,2024-08-21 09:47:02,15.08840819,0.000128,53.2159,271.8831,86.9812,273.1327,0.0001958,2.83e-05,0.0,0 STARLINK-4651,1 53729U 22107AF  24234.40767189  .00002830  00000-0  19580-3 0  9994,2 53729  53.2159 271.8831 0001280  86.9812 273.1327 15.08840819109243,6917.878,95.438,540.628,538.857,0.0
